{
  "type": "FeatureCollection",
  "features": [
    {
      "type": "Feature",
      "properties": {
        "norad_id": 42988,
        "name": "SKYSAT-C10",
        "group": "resource",
        "lat": -73.85603311742912,
        "lon": -91.31528150159451,
        "alt_km": 480.2378552544542,
        "timestamp": "2025-12-10T14:53:36.780121+00:00",
        "meta_object_name": "SKYSAT-C10",
        "meta_object_id": "2017-068B",
        "meta_epoch": "2025-12-10T07:30:39.903840",
        "meta_mean_motion": 15.31978672,
        "meta_eccentricity": 0.00053301,
        "meta_inclination": 97.4259,
        "meta_ra_of_asc_node": 115.1575,
        "meta_arg_of_pericenter": 110.6909,
        "meta_mean_anomaly": 249.4904,
        "meta_ephemeris_type": 0,
        "meta_classification_type": "U",
        "meta_norad_cat_id": 42988,
        "meta_element_set_no": 999,
        "meta_rev_at_epoch": 45342,
        "meta_bstar": 0.0005421769,
        "meta_mean_motion_dot": 0.00016686,
        "meta_mean_motion_ddot": 0,
        "tle_line1": "1 42988U 17068B   25344.31296185  .00016686  00000+0  54218-3 0  9995",
        "tle_line2": "2 42988  97.4259 115.1575 0005330 110.6909 249.4904 15.31978672453420"
      },
      "geometry": {
        "type": "Point",
        "coordinates": [
          -91.31528150159451,
          -73.85603311742912
        ]
      }
    },
    {
      "type": "Feature",
      "properties": {
        "norad_id": 42989,
        "name": "SKYSAT-C9",
        "group": "resource",
        "lat": 71.21945791101886,
        "lon": 92.3262137948531,
        "alt_km": 444.41498142787896,
        "timestamp": "2025-12-10T14:53:36.780130+00:00",
        "meta_object_name": "SKYSAT-C9",
        "meta_object_id": "2017-068C",
        "meta_epoch": "2025-12-10T03:38:00.931488",
        "meta_mean_motion": 15.35943054,
        "meta_eccentricity": 0.00106986,
        "meta_inclination": 97.4188,
        "meta_ra_of_asc_node": 114.3849,
        "meta_arg_of_pericenter": 96.0336,
        "meta_mean_anomaly": 264.2127,
        "meta_ephemeris_type": 0,
        "meta_classification_type": "U",
        "meta_norad_cat_id": 42989,
        "meta_element_set_no": 999,
        "meta_rev_at_epoch": 45368,
        "meta_bstar": 0.00051762568,
        "meta_mean_motion_dot": 0.00018083,
        "meta_mean_motion_ddot": 0,
        "tle_line1": "1 42989U 17068C   25344.15139967  .00018083  00000+0  51763-3 0  9997",
        "tle_line2": "2 42989  97.4188 114.3849 0010698  96.0336 264.2127 15.35943054453681"
      },
      "geometry": {
        "type": "Point",
        "coordinates": [
          92.3262137948531,
          71.21945791101886
        ]
      }
    },
    {
      "type": "Feature",
      "properties": {
        "norad_id": 42990,
        "name": "SKYSAT-C8",
        "group": "resource",
        "lat": 66.25598973194012,
        "lon": 97.35854181399381,
        "alt_km": 460.4649662562997,
        "timestamp": "2025-12-10T14:53:36.780139+00:00",
        "meta_object_name": "SKYSAT-C8",
        "meta_object_id": "2017-068D",
        "meta_epoch": "2025-12-10T06:46:01.372512",
        "meta_mean_motion": 15.3283266,
        "meta_eccentricity": 0.0001744,
        "meta_inclination": 97.4281,
        "meta_ra_of_asc_node": 114.2718,
        "meta_arg_of_pericenter": 0.0607,
        "meta_mean_anomaly": 0.0635,
        "meta_ephemeris_type": 0,
        "meta_classification_type": "U",
        "meta_norad_cat_id": 42990,
        "meta_element_set_no": 999,
        "meta_rev_at_epoch": 45333,
        "meta_bstar": 0.00052543818,
        "meta_mean_motion_dot": 0.00016601,
        "meta_mean_motion_ddot": 0,
        "tle_line1": "1 42990U 17068D   25344.28196033  .00016601  00000+0  52544-3 0  9992",
        "tle_line2": "2 42990  97.4281 114.2718 0001744   0.0607   0.0635 15.32832660453338"
      },
      "geometry": {
        "type": "Point",
        "coordinates": [
          97.35854181399381,
          66.25598973194012
        ]
      }
    },
    {
      "type": "Feature",
      "properties": {
        "norad_id": 42991,
        "name": "SKYSAT-C7",
        "group": "resource",
        "lat": -71.25526480090984,
        "lon": 138.26716205326312,
        "alt_km": 480.25446495806773,
        "timestamp": "2025-12-10T14:53:36.780149+00:00",
        "meta_object_name": "SKYSAT-C7",
        "meta_object_id": "2017-068E",
        "meta_epoch": "2025-12-10T07:22:26.398272",
        "meta_mean_motion": 15.3223979,
        "meta_eccentricity": 0.00077359,
        "meta_inclination": 97.4288,
        "meta_ra_of_asc_node": 115.3402,
        "meta_arg_of_pericenter": 64.9061,
        "meta_mean_anomaly": 295.2983,
        "meta_ephemeris_type": 0,
        "meta_classification_type": "U",
        "meta_norad_cat_id": 42991,
        "meta_element_set_no": 999,
        "meta_rev_at_epoch": 45340,
        "meta_bstar": 0.00054366406,
        "meta_mean_motion_dot": 0.00016878,
        "meta_mean_motion_ddot": 0,
        "tle_line1": "1 42991U 17068E   25344.30724998  .00016878  00000+0  54366-3 0  9993",
        "tle_line2": "2 42991  97.4288 115.3402 0007735  64.9061 295.2983 15.32239790453404"
      },
      "geometry": {
        "type": "Point",
        "coordinates": [
          138.26716205326312,
          -71.25526480090984
        ]
      }
    },
    {
      "type": "Feature",
      "properties": {
        "norad_id": 42992,
        "name": "SKYSAT-C6",
        "group": "resource",
        "lat": 49.95425892220523,
        "lon": 107.15938237380462,
        "alt_km": 464.24032480386813,
        "timestamp": "2025-12-10T14:53:36.780158+00:00",
        "meta_object_name": "SKYSAT-C6",
        "meta_object_id": "2017-068F",
        "meta_epoch": "2025-12-10T03:41:46.891680",
        "meta_mean_motion": 15.31400809,
        "meta_eccentricity": 0.00052268,
        "meta_inclination": 97.4322,
        "meta_ra_of_asc_node": 115.6271,
        "meta_arg_of_pericenter": 89.597,
        "meta_mean_anomaly": 270.587,
        "meta_ephemeris_type": 0,
        "meta_classification_type": "U",
        "meta_norad_cat_id": 42992,
        "meta_element_set_no": 999,
        "meta_rev_at_epoch": 45336,
        "meta_bstar": 0.00048224893,
        "meta_mean_motion_dot": 0.00014564,
        "meta_mean_motion_ddot": 0,
        "tle_line1": "1 42992U 17068F   25344.15401495  .00014564  00000+0  48225-3 0  9998",
        "tle_line2": "2 42992  97.4322 115.6271 0005226  89.5970 270.5870 15.31400809453362"
      },
      "geometry": {
        "type": "Point",
        "coordinates": [
          107.15938237380462,
          49.95425892220523
        ]
      }
    },
    {
      "type": "Feature",
      "properties": {
        "norad_id": 43111,
        "name": "CARTOSAT-2F",
        "group": "resource",
        "lat": -68.72296913891341,
        "lon": -157.29089093163424,
        "alt_km": 515.5656422517322,
        "timestamp": "2025-12-10T14:53:36.780167+00:00",
        "meta_object_name": "CARTOSAT-2F",
        "meta_object_id": "2018-004A",
        "meta_epoch": "2025-12-10T05:53:34.126368",
        "meta_mean_motion": 15.19231599,
        "meta_eccentricity": 7.62e-05,
        "meta_inclination": 97.4314,
        "meta_ra_of_asc_node": 41.9235,
        "meta_arg_of_pericenter": 147.2742,
        "meta_mean_anomaly": 212.854,
        "meta_ephemeris_type": 0,
        "meta_classification_type": "U",
        "meta_norad_cat_id": 43111,
        "meta_element_set_no": 999,
        "meta_rev_at_epoch": 43864,
        "meta_bstar": 0.00029369455,
        "meta_mean_motion_dot": 6.12e-05,
        "meta_mean_motion_ddot": 0,
        "tle_line1": "1 43111U 18004A   25344.24553387  .00006120  00000+0  29369-3 0  9998",
        "tle_line2": "2 43111  97.4314  41.9235 0000762 147.2742 212.8540 15.19231599438648"
      },
      "geometry": {
        "type": "Point",
        "coordinates": [
          -157.29089093163424,
          -68.72296913891341
        ]
      }
    },
    {
      "type": "Feature",
      "properties": {
        "norad_id": 43259,
        "name": "GAOFEN-1 02",
        "group": "resource",
        "lat": -17.563265217504114,
        "lon": 44.98630214207469,
        "alt_km": 646.0281680846529,
        "timestamp": "2025-12-10T14:53:36.780176+00:00",
        "meta_object_name": "GAOFEN-1 02",
        "meta_object_id": "2018-031A",
        "meta_epoch": "2025-12-10T06:50:28.899744",
        "meta_mean_motion": 14.76472987,
        "meta_eccentricity": 0.00014779,
        "meta_inclination": 98.0805,
        "meta_ra_of_asc_node": 42.0734,
        "meta_arg_of_pericenter": 220.1986,
        "meta_mean_anomaly": 139.9114,
        "meta_ephemeris_type": 0,
        "meta_classification_type": "U",
        "meta_norad_cat_id": 43259,
        "meta_element_set_no": 999,
        "meta_rev_at_epoch": 41482,
        "meta_bstar": 0.00024049627,
        "meta_mean_motion_dot": 1.622e-05,
        "meta_mean_motion_ddot": 0,
        "tle_line1": "1 43259U 18031A   25344.28505671  .00001622  00000+0  24050-3 0  9992",
        "tle_line2": "2 43259  98.0805  42.0734 0001477 220.1986 139.9114 14.76472987414824"
      },
      "geometry": {
        "type": "Point",
        "coordinates": [
          44.98630214207469,
          -17.563265217504114
        ]
      }
    }
  ]
}